SES-12                  
1 43488U 18049A   24157.43746924 -.00000266  00000+0  00000+0 0  9990
2 43488   0.0349  57.1751 0000924 244.4280 205.2200  1.00270438 21986
FENGYUN 2H              
1 43491U 18050A   24157.57749837 -.00000127  00000+0  00000+0 0  9993
2 43491   1.1141  87.3687 0001359  36.9469  57.3954  1.00270075 22004
BEIDOU-2 IGSO-7         
1 43539U 18057A   24157.45512372 -.00000046  00000+0  00000+0 0  9992
2 43539  55.1409 169.4700 0075470 233.5687 126.5544  1.00256398 21705
TELSTAR 19V             
1 43562U 18059A   24156.83352307 -.00000276  00000+0  00000+0 0  9996
2 43562   0.0216 209.7514 0002343 262.0735  18.9979  1.00272121 21727
TELKOM 4 (MERAH PUTIH)  
1 43587U 18064A   24157.58562538 -.00000341  00000+0  00000+0 0  9994
2 43587   0.0221 354.7725 0000944  92.5005 126.0361  1.00267525 21443
TELSTAR 18V             
1 43611U 18069A   24155.80004486 -.00000290  00000+0  00000+0 0  9996
2 43611   0.0181 356.1284 0001739  80.6080 242.0028  1.00270760 21170
AZERSPACE 2 (IS-38)     
1 43632U 18074A   24157.42746162  .00000139  00000+0  00000+0 0  9990
2 43632   0.0185  13.3775 0001121  70.7664   9.1765  1.00271941 21012
HORIZONS-3E             
1 43633U 18074B   24156.56854970 -.00000027  00000+0  00000+0 0  9999
2 43633   0.0471 188.9937 0000552  76.7941   1.3900  1.00268601 20890
AEHF-4 (USA 288)        
1 43651U 18079A   24157.47678692 -.00000272  00000+0  00000+0 0  9992
2 43651   1.6840 332.8159 0048712  11.9187  13.7138  1.00275333 20863
BEIDOU-3 G1             
1 43683U 18085A   24157.58958019 -.00000277  00000+0  00000+0 0  9995
2 43683   2.1643 110.0174 0004066 354.8250 141.7992  1.00265790 20622
GSAT-29                 
1 43698U 18089A   24157.42955016  .00000088  00000+0  00000+0 0  9991
2 43698   0.0135 271.2563 0002129 162.5016  30.2101  1.00270593 20356
ES'HAIL 2               
1 43700U 18090A   24157.20898649  .00000147  00000+0  00000+0 0  9997
2 43700   0.0229 358.6915 0001557 116.9701 239.4867  1.00271907 20232
GEO-KOMPSAT-2A          
1 43823U 18100A   24156.75224883 -.00000340  00000+0  00000+0 0  9993
2 43823   0.0642 128.6126 0001691 309.1863 214.9482  1.00271161 20187
GSAT-11                 
1 43824U 18100B   24157.43329215 -.00000074  00000+0  00000+0 0  9999
2 43824   0.0463 260.9148 0007527 179.7406  43.6674  1.00271368 20045
GSAT-7A                 
1 43864U 18105A   24157.43111657  .00000029  00000+0  00000+0 0  9996
2 43864   0.0223 249.2790 0002187 167.1519  55.8692  1.00271665 20022
COSMOS 2533             
1 43867U 18107A   24156.91369007 -.00000035  00000+0  00000+0 0  9995
2 43867   0.0480 108.2976 0000183  26.1392 158.3131  1.00271141 19986
TJS-3                   
1 43874U 18110A   24157.77169241  .00000004  00000+0  00000+0 0  9995
2 43874   0.6260  88.9386 0001370  53.3255 203.1482  1.00271217 20045
CHINASAT 2D (ZX 2D)     
1 43920U 19001A   24157.52997006 -.00000334  00000+0  00000+0 0  9995
2 43920   0.0385 245.3542 0001786  11.9540 317.9046  1.00269414 46640
HELLAS-SAT 4 & SGS-1    
1 44034U 19007A   24156.85387257  .00000156  00000+0  00000+0 0  9995
2 44034   0.0745 126.5037 0005025  11.5044 102.1305  1.00271367 19913
GSAT-31                 
1 44035U 19007B   24156.64093493  .00000129  00000+0  00000+0 0  9999
2 44035   0.0124   3.5557 0001262 302.0318 226.5885  1.00270950 19525
NUSANTARA SATU          
1 44048U 19009A   24156.91577146 -.00000231  00000+0  00000+0 0  9992
2 44048   0.0314 138.8520 0003972 333.6547 257.0147  1.00270960 19325
CHINASAT 6C (ZX 6C)     
1 44067U 19012A   24157.62633686 -.00000334  00000+0  00000+0 0  9992
2 44067   0.0557 121.2805 0003124 259.2961 229.8078  1.00256412 19303
WGS 10 (USA 291)        
1 44071U 19014A   24156.92967772  .00000050  00000+0  00000+0 0  9991
2 44071   0.0198   4.0546 0000506 300.9436 343.8202  1.00271846 19181
TIANLIAN 2-01           
1 44076U 19017A   24157.57671517 -.00000104  00000+0  00000+0 0  9991
2 44076   0.1426 268.1059 0002882 140.7562 130.2763  1.00272332 19217
ARABSAT-6A              
1 44186U 19021A   24157.28153993  .00000157  00000+0  00000+0 0  9996
2 44186   0.0525 333.7458 0002650 149.2498 263.0527  1.00274520 18713
BEIDOU-3 IGSO-1         
1 44204U 19023A   24157.61622480 -.00000245  00000+0  00000+0 0  9997
2 44204  57.6259  45.3433 0018608 210.2896 337.0555  1.00252624 18901
BEIDOU-2 G8             
1 44231U 19027A   24157.50956309 -.00000247  00000+0  00000+0 0  9991
2 44231   1.9210  73.8615 0002829 154.8313 353.6544  1.00268211 18645
YAMAL 601               
1 44307U 19031A   24156.92741513  .00000123  00000+0  00000+0 0  9996
2 44307   0.0168  52.2437 0002122  20.4049 204.0628  1.00272071 18476
AT&T T-16               
1 44333U 19034A   24157.61702646 -.00000112  00000+0  00000+0 0  9998
2 44333   0.0171 323.0966 0001380 335.0573  77.6304  1.00268948 18199
EUTELSAT 7C             
1 44334U 19034B   24156.22480030  .00000052  00000+0  00000+0 0  9997
2 44334   0.0772 183.8676 0002980 231.9146 285.2966  1.00270416 18660
BEIDOU-3 IGSO-2         
1 44337U 19035A   24157.45853507 -.00000053  00000+0  00000+0 0  9992
2 44337  55.1771 165.3705 0033237 210.0015 158.9733  1.00244537 18239
COSMOS 2539             
1 44457U 19048A   24156.34748340  .00000086  00000+0  00000+0 0  9999
2 44457   0.0484 131.1054 0000412  54.5871 204.6876  1.00275313 17771
EDRS-C                  
1 44475U 19049A   24157.20752577  .00000158  00000+0  00000+0 0  9993
2 44475   0.0680 254.1658 0000801 164.7806 301.0613  1.00270981 17765
INTELSAT 39 (IS-39)     
1 44476U 19049B   24155.92410413  .00000037  00000+0  00000+0 0  9997
2 44476   0.0141 332.3384 0000311 309.8036   5.3357  1.00273310 17685
AMOS-17                 
1 44479U 19050A   24156.97965924  .00000113  00000+0  00000+0 0  9995
2 44479   0.0270  66.8966 0001554  53.0222 143.6430  1.00273126 17741
AEHF-5 (USA 292)        
1 44481U 19051A   24157.14330049  .00000086  00000+0  00000+0 0  9992
2 44481   2.7371 307.6781 0045483   3.7565  48.9062  1.00277801 17828
EUTELSAT 5 WEST B       
1 44624U 19067A   24157.20605132 -.00000039  00000+0  00000+0 0  9992
2 44624   0.0679 335.1894 0002663  95.5953 252.5215  1.00272579 17003
MEV-1                   
1 44625U 19067B   24156.91160437 -.00000198  00000+0  00000+0 0  9990
2 44625   0.0501 122.3410 0000452 288.3554 143.8232  1.00270665 15543
TJS-4                   
1 44637U 19070A   24157.57784645 -.00000167  00000+0  00000+0 0  9999
2 44637   0.0483 260.3264 0004272 124.6497 161.0855  1.00269679 17107
BEIDOU-3 IGSO-3         
1 44709U 19073A   24156.77267940 -.00000230  00000+0  00000+0 0  9998
2 44709  56.0724 288.8572 0038592 181.2204 178.6929  1.00253299 17017
TIBA-1                  
1 44800U 19080A   24157.33660432  .00000159  00000+0  00000+0 0  9993
2 44800   0.0543  10.0306 0001789  78.4002 322.4719  1.00271648 16617
INMARSAT GX5            
1 44801U 19080B   24155.56010848  .00000079  00000+0  00000+0 0  9998
2 44801   0.0558  44.2089 0001884  43.4483  17.4728  1.00271967 16651
JCSAT-18 (KACIFIC 1)    
1 44868U 19091A   24157.55466090 -.00000198  00000+0  00000+0 0  9991
2 44868   0.0185 152.3836 0000593  85.7326   6.0104  1.00270412 16579
ELEKTRO-L 3             
1 44903U 19095A   24157.57688920 -.00000095  00000+0  00000+0 0  9991
2 44903   0.0734 218.0424 0000517 201.7641 118.4155  1.00273649 16263
SHIJIAN-20 (SJ-20)      
1 44910U 19097A   24157.71935878 -.00000067  00000+0  00000+0 0  9993
2 44910   3.0135  84.0564 0003153   1.8937 140.6393  1.00273847 16251
TJS-5                   
1 44978U 20002A   24157.58516671 -.00000340  00000+0  00000+0 0  9990
2 44978   0.2546 270.0260 0001424 355.6797 306.9652  1.00279728 16263
GSAT-30                 
1 45026U 20005A   24156.64783801 -.00000161  00000+0  00000+0 0  9996
2 45026   0.0166  29.9605 0003384  49.6072 130.2355  1.00271862 16068
EUTELSAT KONNECT        
1 45027U 20005B   24156.34617806  .00000053  00000+0  00000+0 0  9994
2 45027   0.0666  97.3982 0000556 105.2850 182.4115  1.00270655 16873
JCSAT-17                
1 45245U 20013A   24157.63105509 -.00000318  00000+0  00000+0 0  9995
2 45245   5.5969 349.8624 0002746  96.2703 171.5891  1.00271284 15797
GEO-KOMPSAT-2B          
1 45246U 20013B   24155.76444818 -.00000340  00000+0  00000+0 0  9992
2 45246   0.0194 222.4287 0000335  80.7228 353.0025  1.00271705 15829
BEIDOU-3 G2             
1 45344U 20017A   24157.57767241 -.00000140  00000+0  00000+0 0  9992
2 45344   2.3025  29.2087 0000991 104.2052  49.0586  1.00272179 15822
AEHF-6 (USA 298)        
1 45465U 20022B   24157.58687576 -.00000295  00000+0  00000+0 0  9996
2 45465   4.2504 298.6087 0042768   8.4391 296.3614  1.00265952 15572
BEIDOU-3 G3             
1 45807U 20040A   24157.61474891 -.00000352  00000+0  00000+0 0  9998
2 45807   0.7592  40.9273 0005531 284.4306 260.9339  1.00277306 14637
APSTAR-6D               
1 45863U 20045A   24155.87079116 -.00000313  00000+0  00000+0 0  9999
2 45863   0.0643  93.0946 0002485  18.2866 228.9101  1.00273089 14404
KOREASAT 116            
1 45920U 20048A   24157.61742331 -.00000359  00000+0  00000+0 0  9996
2 45920   0.0127 347.6377 0000731  76.6139 168.7493  1.00272184 14202
EXPRESS 103             
1 45985U 20053A   24156.36435687 -.00000276  00000+0  00000+0 0  9995
2 45985   0.0224 335.1725 0000523  43.1835 102.6037  1.00269659 14205
EXPRESS 80              
1 45986U 20053B   24157.07223898 -.00000133  00000+0  00000+0 0  9996
2 45986   0.0144  65.4850 0002491 113.4260 181.0893  1.00271647 14197
BSAT-4B                 
1 46112U 20056A   24157.61474897 -.00000348  00000+0  00000+0 0  9996
2 46112   0.0929 112.1894 0003681 359.6155 113.8650  1.00271404 13955
MEV-2                   
1 46113U 20056B   24156.89632740 -.00000008  00000+0  00000+0 0  9992
2 46113   0.0192   4.0770 0000698  52.9897 158.4165  1.00270216 73111
